# Made by eph2tle, compiled Jun 28 2023 10:06:02
# Run at Tue Jul  4 10:58:21 2023
#
# No updates
#
#    The following TLEs (Two-Line Elements) were generated by fitting
# a numerically-integrated ephemeris,  based on the orbit given below,
# to the SDP4/SGP4 models.  Each TLE is good for the interval between
# its epoch and the epoch of the subsequent TLE (usually one day).
# The maximum deviation between the numerically integrated ephemerides
# and the TLE-based ephemeris, in kilometers,  is given for each TLE
# as the "worst residual".
#
#    This fitting is done using the 'eph2tle' code packaged with Find_Orb.
# The code has details on how the TLEs were computed :
#
#    https://github.com/Bill-Gray/find_orb/eph2tle.cpp
#
#    Be warned:  the error given is that between the numerically
# integrated ephems and the TLE model.  There will usually be at
# least some additional difference between the ephems and the actual
# motion of the satellite,  especially if the ephemerides are based
# on a short arc.  If the following orbital elements say something
# like "[based on] 10 observations 2015 Jan. 1-13",  and the TLEs
# are for 2015 May,  the extrapolation may be tenuous at best.  If
# your application requires a specific level of accuracy,  you may
# want to contact me;  I can give you some idea as to the fit of the
# underlying data (and possibly TLEs based on newer data).
#
#   You can usually find the underlying observational data,  and the
# fitted orbit,  residuals,  ephemerides,  and sometimes some comments
# about the object,  among the pages listed at
#
#    https://www.projectpluto.com/pluto/mpecs/pseudo.htm
#
#    WARNING:  for this object,  "normal" TLEs cannot be fitted.  (This
# usually means an object with an hyperbolic or nearly-parabolic orbit.)
# For this and similar cases,   an alternative model is used,  in which
# most of the traditional TLE data is replaced by six signed 8-digit hex
# numbers.  These six numbers are a state vector,  numerically integrated
# using a simplified force model.  This is necessary for objects at L2 or
# L1,  and sometimes for objects in high orbits where the SDP4/SGP4 model
# fails.  Some documentation is in 'get_el.cpp' in the source code at
# https://www.github.com/Bill-Gray/sat_code ; look for 'hex' in that file,
# with the actual integration done in 'sdp4.cpp'.  But be aware:  it's my
# own extension,  doesn't work with other code,  and is therefore used
# only when necessary.
#
#    Also,  if you use a TLE outside the "correct" time range (between
# its MJD and that of the next TLE),  all bets are off.  I've carefully
# computed and minimized the worst error over the "correct" time frame,
# but the ephemeris may (or may not) diverge wildly outside of it.
#
# Ephem range: 60127.000000 60249.000000 1.000000
# Created Tue Jul  4 10:58:18 2023
# Ephemeris start:  2 Jul 2023  0:00:00
# Ephemeris end:    1 Nov 2023  0:00:00
# Times are all TDT
# Positions/velocities are in equatorial J2000
# Orbital elements:  EuclidB
#    Perigee 2023 Jul 1.6479904 +/- 4.75e-5 TT = 15:33:06.37 (JD 2460127.1479904)
# Epoch 2023 Jul  4.0 TT = JDT 2460129.5                           Find_Orb
# q  5700.1327062 +/- 2.26            (J2000 equator)
# H   26.78 G 0.15                    Peri.  178.0731132 +/- 0.009
#                                     Node   299.2264651 +/- 0.0025
# e   1.035942634 +/- 4.04e-5         Incl.   29.8382678 +/- 0.0031
# From 16 observations 2023 July 1-4; mean residual 0".186
# LAUNCH at   1 Jul 2023 15:37:49.42 lat -17.64785 lon W1.21238
#
# 1 NoradU COSPAR   Epoch.epoch     dn/dt/2  d2n/dt2/6 BSTAR    T El# C
# 2 NoradU Inclina RAAscNode Eccent  ArgPeri MeanAno  MeanMotion Rev# C

# Worst residual: 2.17 km
# MJD 60127.000000 (2023 Jul  2  0:00)
EuclidB
1 57210U 23092B   23182.99919926 +00022YPV -001WY1L6 -000K7TYSH 20117
2 57210                          +0003M2N9 -000HDA08 -0002Z8SL     01

# Worst residual: 6.05 km
# MJD 60128.000000 (2023 Jul  3  0:00)
EuclidB
1 57210U 23092B   23183.99919926 +000V1A1T -005CDOKA -00139DJBH 20119
2 57210                          +00034S66 -000CQ4ZF -0001WKAH     03

# Worst residual: 2.61 km
# MJD 60129.000000 (2023 Jul  4  0:00)
EuclidB
1 57210U 23092B   23184.99919926 +001L14YU -0088BHAE -001J8JPLH 20111
2 57210                          +0002X1RX -000BHY7O -0001SFDA     00

# Worst residual: 1.75 km
# MJD 60130.000000 (2023 Jul  5  0:00)
EuclidB
1 57210U 23092B   23185.99919926 +0029Q4J5 -00AWVPMX -001Y9D0RH 20111
2 57210                          +0002T0VG -000AWWBS -0001P2DE     04

# Worst residual: 0.64 km
# MJD 60131.000000 (2023 Jul  6  0:00)
EuclidB
1 57210U 23092B   23186.99919926 +002XMEDS -00DHLFUZ -002CNXEXH 20116
2 57210                          +0002Q99S -000AKP0U -0001N5L1     06

# Worst residual: 0.97 km
# MJD 60132.000000 (2023 Jul  7  0:00)
EuclidB
1 57210U 23092B   23187.99919926 +003KY122 -00FZYLGX -002QQ19UH 20113
2 57210                          +0002O6U2 -000ACWBT -0001M440     08

# Worst residual: 1.22 km
# MJD 60133.000000 (2023 Jul  8  0:00)
EuclidB
1 57210U 23092B   23188.99919926 +0047TXMW -00IGSNOZ -0034LSLEH 20112
2 57210                          +0002MLCU -000A7QWO -0001LNHF     09

# Worst residual: 1.45 km
# MJD 60134.000000 (2023 Jul  9  0:00)
EuclidB
1 57210U 23092B   23189.99919926 +004UDPAL -00KWMCV0 -003IFHRRH 20112
2 57210                          +0002LDBM -000A4DJP -0001LMA7     03

# Worst residual: 1.61 km
# MJD 60135.000000 (2023 Jul 10  0:00)
EuclidB
1 57210U 23092B   23190.99919926 +005GOD85 -00NBSRKN -003WAF6HH 20114
2 57210                          +0002KHCH -000A2AJS -0001LXAQ     04

# Worst residual: 1.70 km
# MJD 60136.000000 (2023 Jul 11  0:00)
EuclidB
1 57210U 23092B   23191.99919926 +0062SR7F -00PQLKVI -004A98HEH 20114
2 57210                          +0002JWYU -000A16RA -0001MID1     00

# Worst residual: 1.78 km
# MJD 60137.000000 (2023 Jul 12  0:00)
EuclidB
1 57210U 23092B   23192.99919926 +006OTMXB -00S58A4X -004OE584H 20113
2 57210                          +0002JO3S -000A0UJW -0001NBUW     05

# Worst residual: 1.86 km
# MJD 60138.000000 (2023 Jul 13  0:00)
EuclidB
1 57210U 23092B   23193.99919926 +007ATS1E -00UJUSMB -0052R0HXH 20115
2 57210                          +0002JQSV -000A14E9 -0001OCHT     06

# Worst residual: 1.94 km
# MJD 60139.000000 (2023 Jul 14  0:00)
EuclidB
1 57210U 23092B   23194.99919926 +007WVYNT -00WYLVTM -005HDF6IH 20119
2 57210                          +0002K53X -000A1W2C -0001PJ6P     09

# Worst residual: 1.99 km
# MJD 60140.000000 (2023 Jul 15  0:00)
EuclidB
1 57210U 23092B   23195.99919926 +008J2Z5F -00ZDLES8 -005WAPGCH 20110
2 57210                          +0002KV0X -000A327Q -0001QUZV     04

# Worst residual: 2.01 km
# MJD 60141.000000 (2023 Jul 16  0:00)
EuclidB
1 57210U 23092B   23196.99919926 +0095HLJE -011SWIG9 -006BJZW0H 20114
2 57210                          +0002LWH3 -000A4K47 -0001SB3G     03

# Worst residual: 2.00 km
# MJD 60142.000000 (2023 Jul 17  0:00)
EuclidB
1 57210U 23092B   23197.99919926 +009S6KT7 -0148LQ9Q -006R68AVH 20118
2 57210                          +0002N9AE -000A6BI0 -0001TUQV     07

# Worst residual: 1.99 km
# MJD 60143.000000 (2023 Jul 18  0:00)
EuclidB
1 57210U 23092B   23198.99919926 +00AF8M4J -016OR3NX -007766H0H 20113
2 57210                          +0002OX7O -000A8AG9 -0001VHAF     06

# Worst residual: 2.03 km
# MJD 60144.000000 (2023 Jul 19  0:00)
EuclidB
1 57210U 23092B   23199.99919926 +00B2QC2E -0195E8T6 -007NKGSQH 20116
2 57210                          +0002QVWQ -000AAFCG -0001X64X     02

# Worst residual: 2.12 km
# MJD 60145.000000 (2023 Jul 20  0:00)
EuclidB
1 57210U 23092B   23200.99919926 +00BQQ9Z6 -01BMKEXH -0084DKWCH 20117
2 57210                          +0002T4YU -000ACOSW -0001YWRP     06

# Worst residual: 2.25 km
# MJD 60146.000000 (2023 Jul 21  0:00)
EuclidB
1 57210U 23092B   23201.99919926 +00CFAVF6 -01E4AK83 -008LLW6NH 20116
2 57210                          +0002VNXA -000AF1N9 -00020OQB     03

# Worst residual: 2.38 km
# MJD 60147.000000 (2023 Jul 22  0:00)
EuclidB
1 57210U 23092B   23202.99919926 +00D4IFR6 -01GMLDIO -00939ODNH 20113
2 57210                          +0002YG9R -000AHGVI -00022HMF     04

# Worst residual: 2.47 km
# MJD 60148.000000 (2023 Jul 23  0:00)
EuclidB
1 57210U 23092B   23203.99919926 +00DUF5RJ -01J5HBN0 -009LD3ZDH 20115
2 57210                          +00031HGI -000AJXMW -00024B3I     02

# Worst residual: 2.49 km
# MJD 60149.000000 (2023 Jul 24  0:00)
EuclidB
1 57210U 23092B   23204.99919926 +00EL33B3 -01LOYOL7 -00A3WAOEH 20113
2 57210                          +00034QW5 -000AMF79 -000264UL     09

# Worst residual: 2.47 km
# MJD 60150.000000 (2023 Jul 25  0:00)
EuclidB
1 57210U 23092B   23205.99919926 +00FCK4V7 -01O91KLE -00AMV9PNH 20115
2 57210                          +000387X6 -000AOWYK -00027YMB     02

# Worst residual: 2.47 km
# MJD 60151.000000 (2023 Jul 26  0:00)
EuclidB
1 57210U 23092B   23206.99919926 +00G4W0YA -01QTPZ4V -00B6A0AMH 20110
2 57210                          +0003BVT7 -000AREFE -00029S75     02

# Worst residual: 2.56 km
# MJD 60152.000000 (2023 Jul 27  0:00)
EuclidB
1 57210U 23092B   23207.99919926 +00GY4BCN -01TEZS4V -00BQ4G3BH 20112
2 57210                          +0003FPQJ -000ATV9U -0002BLFX     03

# Worst residual: 2.78 km
# MJD 60153.000000 (2023 Jul 28  0:00)
EuclidB
1 57210U 23092B   23208.99919926 +00HSACAZ -01W0UTIL -00CAEHXOH 20118
2 57210                          +0003JOS3 -000AWBDG -0002DEB1     08

# Worst residual: 3.07 km
# MJD 60154.000000 (2023 Jul 29  0:00)
EuclidB
1 57210U 23092B   23209.99919926 +00INF7VF -01YNAXAK -00CV42U6H 20118
2 57210                          +0003NRZ7 -000AYQVX -0002F6VX     07

# Worst residual: 3.29 km
# MJD 60155.000000 (2023 Jul 30  0:00)
EuclidB
1 57210U 23092B   23210.99919926 +00JJJTX6 -021AC0AL -00DG95DXH 20113
2 57210                          +0003RYF4 -000B16BC -0002GZGG     05

